{"type": "FeatureCollection", "features": [ {"type": "Feature", "properties": {"norad_id": 45358, "name": "COSMOS 2545 (760)", "group": "gnss", "lat": 58.87835953800738, "lon": 11.43820001252931, "alt_km": 19153.736451191904, "timestamp": "2025-12-07T20:38:14.310183+00:00", "meta": {"OBJECT_NAME": "COSMOS 2545 (760)", "OBJECT_ID": "2020-018A", "EPOCH": "2025-12-01T04:43:25.038912", "MEAN_MOTION": 2.13102323, "ECCENTRICITY": 0.00119194, "INCLINATION": 64.4762, "RA_OF_ASC_NODE": 319.3749, "ARG_OF_PERICENTER": 248.338, "MEAN_ANOMALY": 111.5456, "EPHEMERIS_TYPE": 0, "CLASSIFICATION_TYPE": "U", "NORAD_CAT_ID": 45358, "ELEMENT_SET_NO": 999, "REV_AT_EPOCH": 4444, "BSTAR": 0, "MEAN_MOTION_DOT": -2.8e-07, "MEAN_MOTION_DDOT": 0}, "tle": {"line1": "1 45358U 20018A   25335.19681758 -.00000028  00000+0  00000+0 0  9998", "line2": "2 45358  64.4762 319.3749 0011919 248.3380 111.5456  2.13102323 44447"}}, "geometry": {"type": "Point", "coordinates": [11.43820001252931, 58.87835953800738]}}, {"type": "Feature", "properties": {"norad_id": 45807, "name": "BEIDOU-3 G3 (C61)", "group": "gnss", "lat": 1.8750271690142608, "lon": 136.97202003702972, "alt_km": 35798.530243498506, "timestamp": "2025-12-07T20:38:14.310204+00:00", "meta": {"OBJECT_NAME": "BEIDOU-3 G3 (C61)", "OBJECT_ID": "2020-040A", "EPOCH": "2025-12-07T02:10:35.134752", "MEAN_MOTION": 1.00276518, "ECCENTRICITY": 0.00059287, "INCLINATION": 1.9771, "RA_OF_ASC_NODE": 66.5675, "ARG_OF_PERICENTER": 306.2403, "MEAN_ANOMALY": 206.4387, "EPHEMERIS_TYPE": 0, "CLASSIFICATION_TYPE": "U", "NORAD_CAT_ID": 45807, "ELEMENT_SET_NO": 999, "REV_AT_EPOCH": 2014, "BSTAR": 0, "MEAN_MOTION_DOT": -3.5e-06, "MEAN_MOTION_DDOT": 0}, "tle": {"line1": "1 45807U 20040A   25341.09068443 -.00000350  00000+0  00000+0 0  9996", "line2": "2 45807   1.9771  66.5675 0005928 306.2403 206.4387  1.00276518 20145"}}, "geometry": {"type": "Point", "coordinates": [136.97202003702972, 1.8750271690142608]}}, {"type": "Feature", "properties": {"norad_id": 45854, "name": "GPS BIII-3  (PRN 23)", "group": "gnss", "lat": 46.597522094131286, "lon": 80.706919102422, "alt_km": 20304.15960480212, "timestamp": "2025-12-07T20:38:14.310230+00:00", "meta": {"OBJECT_NAME": "GPS BIII-3  (PRN 23)", "OBJECT_ID": "2020-041A", "EPOCH": "2025-12-06T06:48:20.878272", "MEAN_MOTION": 2.00561679, "ECCENTRICITY": 0.00603304, "INCLINATION": 56.5425, "RA_OF_ASC_NODE": 36.4371, "ARG_OF_PERICENTER": 203.1563, "MEAN_ANOMALY": 159.699, "EPHEMERIS_TYPE": 0, "CLASSIFICATION_TYPE": "U", "NORAD_CAT_ID": 45854, "ELEMENT_SET_NO": 999, "REV_AT_EPOCH": 4017, "BSTAR": 0, "MEAN_MOTION_DOT": -7e-07, "MEAN_MOTION_DDOT": 0}, "tle": {"line1": "1 45854U 20041A   25340.28357498 -.00000070  00000+0  00000+0 0  9999", "line2": "2 45854  56.5425  36.4371 0060330 203.1563 159.6990  2.00561679 40178"}}, "geometry": {"type": "Point", "coordinates": [80.706919102422, 46.597522094131286]}}, {"type": "Feature", "properties": {"norad_id": 46114, "name": "GALAXY 30 (WAAS/PRN 135)", "group": "gnss", "lat": -0.038665732564307415, "lon": -98.57218803276405, "alt_km": 35775.986222457206, "timestamp": "2025-12-07T20:38:14.310248+00:00", "meta": {"OBJECT_NAME": "GALAXY 30 (WAAS/PRN 135)", "OBJECT_ID": "2020-056C", "EPOCH": "2025-12-07T06:11:27.743136", "MEAN_MOTION": 1.00270615, "ECCENTRICITY": 0.00024689, "INCLINATION": 0.0168, "RA_OF_ASC_NODE": 334.3319, "ARG_OF_PERICENTER": 280.5472, "MEAN_ANOMALY": 149.2672, "EPHEMERIS_TYPE": 0, "CLASSIFICATION_TYPE": "U", "NORAD_CAT_ID": 46114, "ELEMENT_SET_NO": 999, "REV_AT_EPOCH": 1936, "BSTAR": 0, "MEAN_MOTION_DOT": 4.2e-07, "MEAN_MOTION_DDOT": 0}, "tle": {"line1": "1 46114U 20056C   25341.25795999  .00000042  00000+0  00000+0 0  9993", "line2": "2 46114   0.0168 334.3319 0002468 280.5472 149.2672  1.00270615 19369"}}, "geometry": {"type": "Point", "coordinates": [-98.57218803276405, -0.038665732564307415]}}, {"type": "Feature", "properties": {"norad_id": 46805, "name": "COSMOS 2547 (705K)", "group": "gnss", "lat": -59.49771189535712, "lon": 145.08180963259733, "alt_km": 19128.094054617453, "timestamp": "2025-12-07T20:38:14.310266+00:00", "meta": {"OBJECT_NAME": "COSMOS 2547 (705K)", "OBJECT_ID": "2020-075A", "EPOCH": "2025-12-07T00:22:59.780352", "MEAN_MOTION": 2.13099929, "ECCENTRICITY": 0.00062312, "INCLINATION": 64.5959, "RA_OF_ASC_NODE": 198.8877, "ARG_OF_PERICENTER": 228.9234, "MEAN_ANOMALY": 131.1078, "EPHEMERIS_TYPE": 0, "CLASSIFICATION_TYPE": "U", "NORAD_CAT_ID": 46805, "ELEMENT_SET_NO": 999, "REV_AT_EPOCH": 3981, "BSTAR": 0, "MEAN_MOTION_DOT": 6.4e-07, "MEAN_MOTION_DDOT": 0}, "tle": {"line1": "1 46805U 20075A   25341.01596968  .00000064  00000+0  00000+0 0  9994", "line2": "2 46805  64.5959 198.8877 0006231 228.9234 131.1078  2.13099929 39819"}}, "geometry": {"type": "Point", "coordinates": [145.08180963259733, -59.49771189535712]}}, {"type": "Feature", "properties": {"norad_id": 46826, "name": "GPS BIII-4  (PRN 14)", "group": "gnss", "lat": 25.154642026066185, "lon": -121.51505101547754, "alt_km": 20347.904475628457, "timestamp": "2025-12-07T20:38:14.310300+00:00", "meta": {"OBJECT_NAME": "GPS BIII-4  (PRN 14)", "OBJECT_ID": "2020-078A", "EPOCH": "2025-11-12T03:01:29.191584", "MEAN_MOTION": 2.00567032, "ECCENTRICITY": 0.00639112, "INCLINATION": 54.0223, "RA_OF_ASC_NODE": 219.5836, "ARG_OF_PERICENTER": 203.4986, "MEAN_ANOMALY": 326.7753, "EPHEMERIS_TYPE": 0, "CLASSIFICATION_TYPE": "U", "NORAD_CAT_ID": 46826, "ELEMENT_SET_NO": 999, "REV_AT_EPOCH": 3715, "BSTAR": 0, "MEAN_MOTION_DOT": -3.4e-07, "MEAN_MOTION_DDOT": 0}, "tle": {"line1": "1 46826U 20078A   25316.12603231 -.00000034  00000+0  00000+0 0  9994", "line2": "2 46826  54.0223 219.5836 0063911 203.4986 326.7753  2.00567032 37154"}}, "geometry": {"type": "Point", "coordinates": [-121.51505101547754, 25.154642026066185]}}, {"type": "Feature", "properties": {"norad_id": 48859, "name": "GPS BIII-5  (PRN 11)", "group": "gnss", "lat": -29.956220438518706, "lon": -176.27982528534494, "alt_km": 20123.848317544613, "timestamp": "2025-12-07T20:38:14.310321+00:00", "meta": {"OBJECT_NAME": "GPS BIII-5  (PRN 11)", "OBJECT_ID": "2021-054A", "EPOCH": "2025-11-30T17:12:22.002912", "MEAN_MOTION": 2.00553932, "ECCENTRICITY": 0.0024653, "INCLINATION": 55.2606, "RA_OF_ASC_NODE": 340.4377, "ARG_OF_PERICENTER": 232.9477, "MEAN_ANOMALY": 227.2059, "EPHEMERIS_TYPE": 0, "CLASSIFICATION_TYPE": "U", "NORAD_CAT_ID": 48859, "ELEMENT_SET_NO": 999, "REV_AT_EPOCH": 3277, "BSTAR": 0, "MEAN_MOTION_DOT": -5.5e-07, "MEAN_MOTION_DDOT": 0}, "tle": {"line1": "1 48859U 21054A   25334.71692133 -.00000055  00000+0  00000+0 0  9994", "line2": "2 48859  55.2606 340.4377 0024653 232.9477 227.2059  2.00553932 32777"}}, "geometry": {"type": "Point", "coordinates": [-176.27982528534494, -29.956220438518706]}}, {"type": "Feature", "properties": {"norad_id": 49336, "name": "QZS-1R (QZSS/PRN 196)", "group": "gnss", "lat": 36.53511681030381, "lon": 160.88513195343083, "alt_km": 38891.74573090968, "timestamp": "2025-12-07T20:38:14.310339+00:00", "meta": {"OBJECT_NAME": "QZS-1R (QZSS/PRN 196)", "OBJECT_ID": "2021-096A", "EPOCH": "2025-12-05T14:57:38.876832", "MEAN_MOTION": 1.00259301, "ECCENTRICITY": 0.07539341, "INCLINATION": 37.062, "RA_OF_ASC_NODE": 82.4658, "ARG_OF_PERICENTER": 271.1853, "MEAN_ANOMALY": 80.5969, "EPHEMERIS_TYPE": 0, "CLASSIFICATION_TYPE": "U", "NORAD_CAT_ID": 49336, "ELEMENT_SET_NO": 999, "REV_AT_EPOCH": 1507, "BSTAR": 0, "MEAN_MOTION_DOT": -2.6e-06, "MEAN_MOTION_DDOT": 0}, "tle": {"line1": "1 49336U 21096A   25339.62336663 -.00000260  00000+0  00000+0 0  9997", "line2": "2 49336  37.0620  82.4658 0753934 271.1853  80.5969  1.00259301 15077"}}, "geometry": {"type": "Point", "coordinates": [160.88513195343083, 36.53511681030381]}}, {"type": "Feature", "properties": {"norad_id": 49809, "name": "GSAT0223 (GALILEO 27)", "group": "gnss", "lat": 45.56942390234809, "lon": 27.946060477778882, "alt_km": 23230.280010548442, "timestamp": "2025-12-07T20:38:14.310358+00:00", "meta": {"OBJECT_NAME": "GSAT0223 (GALILEO 27)", "OBJECT_ID": "2021-116A", "EPOCH": "2025-12-06T21:09:43.608672", "MEAN_MOTION": 1.70475531, "ECCENTRICITY": 0.00047238, "INCLINATION": 57.2205, "RA_OF_ASC_NODE": 346.871, "ARG_OF_PERICENTER": 250.5355, "MEAN_ANOMALY": 287.3218, "EPHEMERIS_TYPE": 0, "CLASSIFICATION_TYPE": "U", "NORAD_CAT_ID": 49809, "ELEMENT_SET_NO": 999, "REV_AT_EPOCH": 2490, "BSTAR": 0, "MEAN_MOTION_DOT": -8.2e-07, "MEAN_MOTION_DDOT": 0}, "tle": {"line1": "1 49809U 21116A   25340.88175473 -.00000082  00000+0  00000+0 0  9997", "line2": "2 49809  57.2205 346.8710 0004723 250.5355 287.3218  1.70475531 24902"}}, "geometry": {"type": "Point", "coordinates": [27.946060477778882, 45.56942390234809]}}, {"type": "Feature", "properties": {"norad_id": 49810, "name": "GSAT0224 (GALILEO 28)", "group": "gnss", "lat": 7.780158719411266, "lon": 161.79114443312164, "alt_km": 23219.872047443416, "timestamp": "2025-12-07T20:38:14.310382+00:00", "meta": {"OBJECT_NAME": "GSAT0224 (GALILEO 28)", "OBJECT_ID": "2021-116B", "EPOCH": "2025-12-04T15:38:46.077216", "MEAN_MOTION": 1.70475512, "ECCENTRICITY": 0.00040562, "INCLINATION": 57.2223, "RA_OF_ASC_NODE": 346.9305, "ARG_OF_PERICENTER": 253.8254, "MEAN_ANOMALY": 108.1284, "EPHEMERIS_TYPE": 0, "CLASSIFICATION_TYPE": "U", "NORAD_CAT_ID": 49810, "ELEMENT_SET_NO": 999, "REV_AT_EPOCH": 2489, "BSTAR": 0, "MEAN_MOTION_DOT": -7.3e-07, "MEAN_MOTION_DDOT": 0}, "tle": {"line1": "1 49810U 21116B   25338.65192219 -.00000073  00000+0  00000+0 0  9998", "line2": "2 49810  57.2223 346.9305 0004056 253.8254 108.1284  1.70475512 24898"}}, "geometry": {"type": "Point", "coordinates": [161.79114443312164, 7.780158719411266]}}]}